{
  "norad_id": 58259,
  "name": "LEMUR-2-BASS",
  "history": [
    {
      "epoch": "2026-03-28T19:07:27.411456Z",
      "apogee_km": 450.6344785902438,
      "perigee_km": 438.8300959789267,
      "latitude_deg": -4.5719651136597095e-05,
      "longitude_deg": 58.47034929702759,
      "height_km": 449.1375934030103,
      "semi_major_axis_km": 6822.869287284585,
      "eccentricity": 0.00086506,
      "inclination_deg": 97.3862,
      "raan_deg": 171.5467,
      "arg_perigee_deg": 102.7616,
      "mean_anomaly_deg": 257.4597,
      "mean_motion_rev_day": 15.40466241
    },
    {
      "epoch": "2026-03-29T04:28:41.210976Z",
      "apogee_km": 450.5527045111039,
      "perigee_km": 438.777912287268,
      "latitude_deg": 9.571933213229346e-06,
      "longitude_deg": -81.8276040945822,
      "height_km": 448.93102866393934,
      "semi_major_axis_km": 6822.802308399186,
      "eccentricity": 0.0008629,
      "inclination_deg": 97.3863,
      "raan_deg": 171.9404,
      "arg_perigee_deg": 101.4056,
      "mean_anomaly_deg": 258.816,
      "mean_motion_rev_day": 15.40488925
    },
    {
      "epoch": "2026-03-30T03:51:43.932096Z",
      "apogee_km": 450.3872573705703,
      "perigee_km": 438.6741014985164,
      "latitude_deg": -4.460848367971369e-05,
      "longitude_deg": -72.56488492943105,
      "height_km": 448.4952196575534,
      "semi_major_axis_km": 6822.667679434543,
      "eccentricity": 0.0008584,
      "inclination_deg": 97.3864,
      "raan_deg": 172.9248,
      "arg_perigee_deg": 98.4752,
      "mean_anomaly_deg": 261.7467,
      "mean_motion_rev_day": 15.40534522
    },
    {
      "epoch": "2026-03-30T05:25:16.019040Z",
      "apogee_km": 450.37528998213384,
      "perigee_km": 438.6665173941401,
      "latitude_deg": 4.4389624057810986e-05,
      "longitude_deg": -95.94701421123649,
      "height_km": 448.4658638207042,
      "semi_major_axis_km": 6822.657903688137,
      "eccentricity": 0.00085808,
      "inclination_deg": 97.3863,
      "raan_deg": 172.9904,
      "arg_perigee_deg": 98.2849,
      "mean_anomaly_deg": 261.9371,
      "mean_motion_rev_day": 15.40537833
    }
  ]
}